{
  "norad_id": 66323,
  "name": "STARLINK-35309",
  "history": [
    {
      "epoch": "2026-03-28T09:51:15.738912Z",
      "apogee_km": 483.8452385347291,
      "perigee_km": 482.1929349259226,
      "latitude_deg": -8.413290889313942e-06,
      "longitude_deg": 133.47327181794668,
      "height_km": 482.5635448419929,
      "semi_major_axis_km": 6861.156086730325,
      "eccentricity": 0.00012041,
      "inclination_deg": 42.9997,
      "raan_deg": 107.1203,
      "arg_perigee_deg": 286.3118,
      "mean_anomaly_deg": 73.7601,
      "mean_motion_rev_day": 15.27590022
    },
    {
      "epoch": "2026-03-29T01:32:47.806944Z",
      "apogee_km": 483.7409637207975,
      "perigee_km": 481.95573533285005,
      "latitude_deg": -2.688597850500297e-05,
      "longitude_deg": -106.2501223216969,
      "height_km": 482.3981384128837,
      "semi_major_axis_km": 6860.9853495268235,
      "eccentricity": 0.0001301,
      "inclination_deg": 43.0003,
      "raan_deg": 103.425,
      "arg_perigee_deg": 284.7231,
      "mean_anomaly_deg": 75.3476,
      "mean_motion_rev_day": 15.27647044
    },
    {
      "epoch": "2026-03-30T01:05:09.827232Z",
      "apogee_km": 483.6526571876084,
      "perigee_km": 482.46910055350236,
      "latitude_deg": 4.316958767841614e-05,
      "longitude_deg": -105.84562915061828,
      "height_km": 483.03263613874014,
      "semi_major_axis_km": 6861.197878870555,
      "eccentricity": 8.625e-05,
      "inclination_deg": 43.0019,
      "raan_deg": 97.8879,
      "arg_perigee_deg": 250.7212,
      "mean_anomaly_deg": 109.3547,
      "mean_motion_rev_day": 15.27576065
    },
    {
      "epoch": "2026-03-30T10:30:06.409152Z",
      "apogee_km": 483.80746909381196,
      "perigee_km": 482.3294282160623,
      "latitude_deg": 4.569712210087176e-05,
      "longitude_deg": 110.31522623548824,
      "height_km": 482.8816299749443,
      "semi_major_axis_km": 6861.205448654937,
      "eccentricity": 0.00010771,
      "inclination_deg": 43.0005,
      "raan_deg": 95.6712,
      "arg_perigee_deg": 267.1528,
      "mean_anomaly_deg": 92.9201,
      "mean_motion_rev_day": 15.27573537
    },
    {
      "epoch": "2026-03-30T16:46:44.051808Z",
      "apogee_km": 483.8566848620785,
      "perigee_km": 482.15841436315895,
      "latitude_deg": 1.4260243284352378e-05,
      "longitude_deg": 14.421256333568252,
      "height_km": 482.7688189830722,
      "semi_major_axis_km": 6861.144549612619,
      "eccentricity": 0.00012376,
      "inclination_deg": 42.9994,
      "raan_deg": 94.1919,
      "arg_perigee_deg": 271.0276,
      "mean_anomaly_deg": 89.0434,
      "mean_motion_rev_day": 15.27593875
    },
    {
      "epoch": "2026-03-31T10:02:27.732192Z",
      "apogee_km": 483.7223707244639,
      "perigee_km": 482.3579570336551,
      "latitude_deg": 1.817622506368249e-05,
      "longitude_deg": 110.72202921298494,
      "height_km": 482.90763089403106,
      "semi_major_axis_km": 6861.17716387906,
      "eccentricity": 9.943e-05,
      "inclination_deg": 43.0028,
      "raan_deg": 90.1336,
      "arg_perigee_deg": 262.3494,
      "mean_anomaly_deg": 97.7245,
      "mean_motion_rev_day": 15.27582983
    },
    {
      "epoch": "2026-04-01T00:09:52.517376Z",
      "apogee_km": 483.8703889043809,
      "perigee_km": 482.17074295215025,
      "latitude_deg": 2.000868392283971e-05,
      "longitude_deg": -105.03827325228526,
      "height_km": 482.82012956735036,
      "semi_major_axis_km": 6861.157565928265,
      "eccentricity": 0.00012386,
      "inclination_deg": 42.9991,
      "raan_deg": 86.8066,
      "arg_perigee_deg": 268.4421,
      "mean_anomaly_deg": 91.6289,
      "mean_motion_rev_day": 15.27589528
    },
    {
      "epoch": "2026-04-02T15:23:46.927104Z",
      "apogee_km": 483.6369614881305,
      "perigee_km": 482.4451748576894,
      "latitude_deg": -2.403150153927343e-05,
      "longitude_deg": 15.64108227934397,
      "height_km": 482.9435695933281,
      "semi_major_axis_km": 6861.17806817291,
      "eccentricity": 8.685e-05,
      "inclination_deg": 42.9992,
      "raan_deg": 77.5739,
      "arg_perigee_deg": 257.7553,
      "mean_anomaly_deg": 102.3201,
      "mean_motion_rev_day": 15.27582681
    },
    {
      "epoch": "2026-04-03T14:56:06.828000Z",
      "apogee_km": 485.31508129040685,
      "perigee_km": 480.50411541564154,
      "latitude_deg": -2.3031987850506284e-05,
      "longitude_deg": 16.052456463472982,
      "height_km": 482.3689613068804,
      "semi_major_axis_km": 6861.046598353024,
      "eccentricity": 0.0003506,
      "inclination_deg": 42.9995,
      "raan_deg": 72.0349,
      "arg_perigee_deg": 277.6146,
      "mean_anomaly_deg": 82.4307,
      "mean_motion_rev_day": 15.27626588
    }
  ]
}